[{"OBJECT_NAME":"STARLINK-4651","OBJECT_ID":"2022-107AF","EPOCH":"2026-03-09T21:34:47.729856","MEAN_MOTION":15.08838081,"ECCENTRICITY":0.00014374,"INCLINATION":53.2171,"RA_OF_ASC_NODE":253.2905,"ARG_OF_PERICENTER":86.8831,"MEAN_ANOMALY":273.2326,"EPHEMERIS_TYPE":0,"CLASSIFICATION_TYPE":"U","NORAD_CAT_ID":53729,"ELEMENT_SET_NO":999,"REV_AT_EPOCH":19461,"BSTAR":4.0829023e-5,"MEAN_MOTION_DOT":3.62e-6,"MEAN_MOTION_DDOT":0},{"OBJECT_NAME":"MAGION 2","OBJECT_ID":"1989-080B","EPOCH":"2026-03-09T12:12:11.295648","MEAN_MOTION":12.6287073,"ECCENTRICITY":0.11724729,"INCLINATION":82.5971,"RA_OF_ASC_NODE":77.6425,"ARG_OF_PERICENTER":188.581,"MEAN_ANOMALY":169.3566,"EPHEMERIS_TYPE":0,"CLASSIFICATION_TYPE":"U","NORAD_CAT_ID":20281,"ELEMENT_SET_NO":999,"REV_AT_EPOCH":66949,"BSTAR":0.0001812215,"MEAN_MOTION_DOT":6.35e-6,"MEAN_MOTION_DDOT":0}]
